ONEWEB-0709             
1 55172U 23004AJ  25038.72496109 -.00000166  00000+0 -50495-3 0  9995
2 55172  87.8890 119.6652 0002780  95.9118 264.2327 13.11420700101065
ONEWEB-0710             
1 55173U 23004AK  25038.70744981  .00000016  00000+0  86216-5 0  9992
2 55173  87.9063 104.4061 0001776  97.8824 262.2509 13.17648494102467
ONEWEB-0711             
1 55174U 23004AL  25038.77243653 -.00000289  00000+0 -85198-3 0  9990
2 55174  87.8886 119.6238 0001259  81.1888 278.9382 13.11414074101030
ONEWEB-0713             
1 55175U 23004AM  25038.71478073 -.00000488  00000+0 -14126-2 0  9994
2 55175  87.8886 119.6427 0001568  96.5964 263.5342 13.11415850101016
ONEWEB-0715             
1 55176U 23004AN  25038.70970024 -.00000603  00000+0 -17365-2 0  9994
2 55176  87.8886 119.6439 0002035  96.0011 264.1349 13.11417706101058
ONEWEB-0716             
1 55177U 23004AP  25038.70068459  .00000016  00000+0  81282-5 0  9993
2 55177  87.9063 104.4040 0001859 108.7530 251.3803 13.17647520102461
ONEWEB-0717             
1 55178U 23004AQ  25038.68381595 -.00000020  00000+0 -84018-4 0  9996
2 55178  87.9062 104.3682 0001684  76.5238 283.6081 13.17649287102519
ONEWEB-0719             
1 55179U 23004AR  25038.69394183  .00000045  00000+0  82055-4 0  9999
2 55179  87.9062 104.3510 0001704 107.5580 252.5737 13.17649026102466
ONEWEB-0530             
1 55796U 23029A   25038.92890855  .00000060  00000+0  11523-3 0  9992
2 55796  87.9283  12.8194 0001418  67.6955 292.4329 13.20770597 95903
ONEWEB-0534             
1 55797U 23029B   25038.91628596  .00000017  00000+0  10717-4 0  9990
2 55797  87.9284  12.8291 0001815  87.0370 273.0972 13.20769759 95908
ONEWEB-0556             
1 55798U 23029C   25038.92259048  .00000028  00000+0  36581-4 0  9993
2 55798  87.9283  12.8202 0001062  97.4885 262.6369 13.20771101 95908
ONEWEB-0562             
1 55799U 23029D   25038.90996861  .00000013  00000+0 -66593-6 0  9996
2 55799  87.9284  12.8148 0000993  59.1663 300.9568 13.20771147 95907
ONEWEB-0563             
1 55800U 23029E   25038.90365970 -.00000003  00000+0 -38789-4 0  9994
2 55800  87.9283  12.8309 0001879  95.0174 265.1174 13.20770807 95893
ONEWEB-0564             
1 55801U 23029F   25038.89734632 -.00000044  00000+0 -14034-3 0  9999
2 55801  87.9285  12.8199 0001542  75.9336 284.1969 13.20771060 95904
ONEWEB-0638             
1 55802U 23029G   25038.93193997 -.00000053  00000+0 -17782-3 0  9991
2 55802  87.9007  28.0321 0001289  96.3146 263.8130 13.14504009 94461
ONEWEB-0639             
1 55803U 23029H   25038.93388681  .00000024  00000+0  26668-4 0  9998
2 55803  87.9153  43.2285 0002682 111.7613 248.3806 13.19725185 93711
ONEWEB-0640             
1 55804U 23029J   25038.94146397  .00000155  00000+0  38435-3 0  9995
2 55804  87.9006  28.0210 0001542 112.4684 247.6609 13.14503452 94482
ONEWEB-0641             
1 55805U 23029K   25038.92913225  .00000001  00000+0 -29570-4 0  9998
2 55805  87.9149  43.2051 0002081  94.6438 265.4933 13.19726818 93722
ONEWEB-0642             
1 55806U 23029L   25038.92440167 -.00000006  00000+0 -46712-4 0  9992
2 55806  87.9154  43.2380 0002730 102.3121 257.8318 13.19725376 93710
ONEWEB-0643             
1 55807U 23029M   25038.91132286 -.00000182  00000+0 -52459-3 0  9991
2 55807  87.9009  28.0075 0002736  90.4297 269.7146 13.14504060 94452
ONEWEB-0644             
1 55808U 23029N   25038.91965764 -.00000017  00000+0 -75993-4 0  9993
2 55808  87.9156  43.2399 0002379  97.7014 262.4389 13.19725597 93716
ONEWEB-0645             
1 55809U 23029P   25038.91571120 -.00000018  00000+0 -77552-4 0  9997
2 55809  87.9155  43.2387 0001823  99.0520 261.0819 13.19724652 93717
ONEWEB-0646             
1 55810U 23029Q   25038.94573403  .00000077  00000+0  16118-3 0  9991
2 55810  87.9152  43.2283 0002168  92.9016 267.2365 13.19725888 93701
ONEWEB-0648             
1 55811U 23029R   25038.95574208  .00000238  00000+0  60670-3 0  9998
2 55811  87.9009  27.9725 0002442 109.6879 250.4514 13.14504018 94460
ONEWEB-0649             
1 55812U 23029S   25038.90860211  .00000011  00000+0 -43378-5 0  9994
2 55812  87.9152  43.2272 0002166 102.4048 257.7327 13.19725150 93738
ONEWEB-0650             
1 55813U 23029T   25038.90386602 -.00000013  00000+0 -63980-4 0  9995
2 55813  87.9153  43.2347 0002065  93.4452 266.6917 13.19724986 93706
ONEWEB-0652             
1 55814U 23029U   25038.93668326  .00000076  00000+0  16924-3 0  9997
2 55814  87.9008  27.9869 0001749  81.7313 278.4015 13.14505104 94433
ONEWEB-0653             
1 55815U 23029V   25038.92084931 -.00000137  00000+0 -40521-3 0  9991
2 55815  87.9010  27.9760 0001611  86.5070 273.6244 13.14503742 94468
ONEWEB-0654             
1 55816U 23029W   25038.91608851 -.00000187  00000+0 -53869-3 0  9998
2 55816  87.9008  27.9808 0001496  74.7357 285.3938 13.14503311 94481
ONEWEB-0656             
1 55817U 23029X   25038.96678891  .00000019  00000+0  15490-4 0  9996
2 55817  87.9284  12.7474 0001775  63.8954 296.2362 13.20769986 95911
ONEWEB-0657             
1 55818U 23029Y   25038.89911861 -.00000006  00000+0 -46169-4 0  9991
2 55818  87.9153  43.2407 0002304  69.8949 290.2431 13.19724347 93718
ONEWEB-0658             
1 55819U 23029Z   25038.74275478  .00000067  00000+0  13375-3 0  9990
2 55819  87.9152  43.2060 0002334  97.2769 262.8629 13.19724889 93705
ONEWEB-0660             
1 55820U 23029AA  25038.89388786  .00000016  00000+0  73378-5 0  9990
2 55820  87.9009  27.9578 0001796  99.5886 260.5446 13.14503746 94465
ONEWEB-0661             
1 55821U 23029AB  25038.92878474 -.00000082  00000+0 -25559-3 0  9994
2 55821  87.9006  28.0200 0001693  99.5740 260.5581 13.14501732 94454
ONEWEB-0662             
1 55822U 23029AC  25038.96367451  .00000185  00000+0  46351-3 0  9992
2 55822  87.9009  28.0203 0001886  99.4278 260.7065 13.14502512 94502
ONEWEB-0663             
1 55823U 23029AD  25038.87800871  .00000316  00000+0  74485-3 0  9996
2 55823  87.9287  12.8228 0002086 100.8410 259.2958 13.20822336 95890
ONEWEB-0664             
1 55824U 23029AE  25038.95416095  .00000021  00000+0  20253-4 0  9995
2 55824  87.9283  12.8254 0001369  86.8479 273.2811 13.20770764 95900
ONEWEB-0665             
1 55825U 23029AF  25038.92559306  .00000742  00000+0  19681-2 0  9997
2 55825  87.9010  27.9954 0001778  95.6442 264.4890 13.14498704 94479
ONEWEB-0666             
1 55826U 23029AG  25038.94785655  .00000082  00000+0  17036-3 0  9998
2 55826  87.9285  12.8161 0001831  72.8405 287.2929 13.20771664 95915
ONEWEB-0667             
1 55827U 23029AH  25038.94154731  .00000129  00000+0  28443-3 0  9990
2 55827  87.9283  12.7500 0001741  90.6661 269.4672 13.20772934 95909
ONEWEB-0669             
1 55828U 23029AJ  25038.93680641  .00000081  00000+0  16633-3 0  9999
2 55828  87.9284  12.7872 0001390  63.1562 296.9713 13.20771678 95903
ONEWEB-0670             
1 55829U 23029AK  25038.90339029 -.00000110  00000+0 -33246-3 0  9992
2 55829  87.9014  28.0133 0001502  99.1353 260.9946 13.14504041 94490
ONEWEB-0671             
1 55830U 23029AL  25038.96546637  .00000071  00000+0  14532-3 0  9996
2 55830  87.9151  43.2224 0001695  98.4831 261.6494 13.19725299 93715
ONEWEB-0672             
1 55831U 23029AM  25038.93207971  .00000089  00000+0  18650-3 0  9993
2 55831  87.9284  12.7733 0001905  72.6888 287.4454 13.20771652 95900
ONEWEB-0673             
1 55832U 23029AN  25038.94177660  .00000028  00000+0  37655-4 0  9996
2 55832  87.9150  43.1921 0002122  93.8789 266.2586 13.19725146 93710
ONEWEB-0674             
1 55833U 23029AP  25038.94780564  .00000270  00000+0  69359-3 0  9994
2 55833  87.9007  27.9981 0001408 101.7027 258.4260 13.14504190 94484
ONEWEB-0675             
1 55834U 23029AQ  25038.95756822  .00000087  00000+0  18373-3 0  9992
2 55834  87.9154  43.2315 0002138  83.3364 276.8012 13.19725705 93738
ONEWEB-0720             
1 55835U 23029AR  25038.94967388  .00000109  00000+0  24103-3 0  9996
2 55835  87.9154  43.2311 0002119 101.0571 259.0800 13.19724663 93653
ONEWEB-0537             
1 56046U 23043A   25038.83437122 -.00000046  00000+0 -15290-3 0  9992
2 56046  87.9123 327.2757 0001905  71.7185 288.4153 13.16595820 93913
ONEWEB-0538             
1 56047U 23043B   25038.82803010 -.00000065  00000+0 -20278-3 0  9998
2 56047  87.9126 327.2983 0002092  78.9860 281.1506 13.16596103 93923
ONEWEB-0546             
1 56048U 23043C   25038.81537226 -.00000051  00000+0 -16659-3 0  9994
2 56048  87.9130 327.2689 0001989  56.1754 303.9566 13.16595782 93916
ONEWEB-0547             
1 56049U 23043D   25038.87622522  .00000017  00000+0  10663-4 0  9995
2 56049  87.9344 342.4927 0002044  80.4180 279.7185 13.21823497 92924
ONEWEB-0548             
1 56050U 23043E   25038.84069055 -.00000358  00000+0 -97117-3 0  9998
2 56050  87.9126 327.3051 0001279  85.5376 274.5901 13.16593620 94822
ONEWEB-0549             
1 56051U 23043F   25038.79184503  .00000127  00000+0  27606-3 0  9997
2 56051  87.9346 342.5106 0002240  85.9257 274.2133 13.21825909 92914
ONEWEB-0550             
1 56052U 23043G   25038.85492560  .00000091  00000+0  18984-3 0  9999
2 56052  87.9341 342.4974 0001734  82.9285 277.2046 13.21826658 93837
ONEWEB-0551             
1 56053U 23043H   25038.93470234  .00000062  00000+0  13179-3 0  9992
2 56053  87.9112 357.6574 0001974  87.2204 272.9152 13.15551121 91418
ONEWEB-0552             
1 56054U 23043J   25038.84860985  .00000124  00000+0  26953-3 0  9992
2 56054  87.9340 342.5081 0001804  89.1972 270.9369 13.21824514 93835
ONEWEB-0553             
1 56055U 23043K   25038.82169514 -.00000255  00000+0 -70135-3 0  9999
2 56055  87.9127 327.2966 0001924  69.0806 291.0531 13.16593210 93922
ONEWEB-0554             
1 56056U 23043L   25038.80903468 -.00000026  00000+0 -10089-3 0  9990
2 56056  87.9131 327.3267 0001254  90.9341 269.1933 13.16596654 93901
